start=new Date('2022-09-04T00:00:00.000Z').valueOf();
sats=[{"DECAY_DATE":null,"SITE":"AFETR","OBJECT_TYPE":"PAYLOAD","MEAN_MOTION_DDOT":"0.0000000000000","TLE_LINE1":"1 52108U 22029W   22246.91667824 -.00015911  00000-0 -98355-3 0  9992","RCS_SIZE":"LARGE","ARG_OF_PERICENTER":"65.3205","MEAN_MOTION_DOT":"-0.00015911","SEMIMAJOR_AXIS":"6917.851","EPOCH":"2022-09-03T22:00:00.999936","CENTER_NAME":"EARTH","RA_OF_ASC_NODE":"77.7079","PERIAPSIS":"538.470","LAUNCH_DATE":"2022-03-19","MEAN_MOTION":"15.08849458","OBJECT_ID":"2022-029W","OBJECT_NAME":"STARLINK-3698","CLASSIFICATION_TYPE":"U","APOAPSIS":"540.963","PERIOD":"95.437","GP_ID":"211672108","COUNTRY_CODE":"US","TLE_LINE2":"2 52108  53.2165  77.7079 0001802  65.3205  54.1249 15.08849458  1300","ECCENTRICITY":"0.00018020","REF_FRAME":"TEME","MEAN_ANOMALY":"54.1249","MEAN_ELEMENT_THEORY":"SGP4","TIME_SYSTEM":"UTC","BSTAR":"-0.00098355000000","FILE":"3556957","REV_AT_EPOCH":"130","ELEMENT_SET_NO":"999","INCLINATION":"53.2165","NORAD_CAT_ID":"52108","EPHEMERIS_TYPE":"0"},{"ARG_OF_PERICENTER":"69.5580","MEAN_MOTION_DOT":"0.00022633","SEMIMAJOR_AXIS":"6917.939","EPOCH":"2022-09-03T22:00:00.999936","CENTER_NAME":"EARTH","SITE":"AFETR","DECAY_DATE":null,"OBJECT_TYPE":"PAYLOAD","MEAN_MOTION_DDOT":"0.0000000000000","RCS_SIZE":"LARGE","TLE_LINE1":"1 52110U 22029Y   22246.91667824  .00022633  00000-0  14363-2 0  9998","PERIOD":"95.439","PERIAPSIS":"538.595","RA_OF_ASC_NODE":"77.7039","LAUNCH_DATE":"2022-03-19","MEAN_MOTION":"15.08820667","OBJECT_NAME":"STARLINK-3687","OBJECT_ID":"2022-029Y","APOAPSIS":"541.014","CLASSIFICATION_TYPE":"U","REF_FRAME":"TEME","MEAN_ANOMALY":"69.8876","MEAN_ELEMENT_THEORY":"SGP4","TIME_SYSTEM":"UTC","FILE":"3556957","BSTAR":"0.00143630000000","GP_ID":"211672358","COUNTRY_CODE":"US","TLE_LINE2":"2 52110  53.2164  77.7039 0001748  69.5580  69.8876 15.08820667  1309","ECCENTRICITY":"0.00017480","NORAD_CAT_ID":"52110","EPHEMERIS_TYPE":"0","REV_AT_EPOCH":"130","ELEMENT_SET_NO":"999","INCLINATION":"53.2164"},{"PERIOD":"95.438","LAUNCH_DATE":"2022-03-19","MEAN_MOTION":"15.08832357","OBJECT_ID":"2022-029Z","OBJECT_NAME":"STARLINK-3708","CLASSIFICATION_TYPE":"U","APOAPSIS":"541.097","PERIAPSIS":"538.441","RA_OF_ASC_NODE":"77.7070","EPOCH":"2022-09-03T22:00:00.999936","CENTER_NAME":"EARTH","ARG_OF_PERICENTER":"63.9698","MEAN_MOTION_DOT":"0.00037139","SEMIMAJOR_AXIS":"6917.904","RCS_SIZE":"LARGE","TLE_LINE1":"1 52111U 22029Z   22246.91667824  .00037139  00000-0  23398-2 0  9994","SITE":"AFETR","DECAY_DATE":null,"OBJECT_TYPE":"PAYLOAD","MEAN_MOTION_DDOT":"0.0000000000000","EPHEMERIS_TYPE":"0","NORAD_CAT_ID":"52111","ELEMENT_SET_NO":"999","INCLINATION":"53.2178","REV_AT_EPOCH":"130","MEAN_ELEMENT_THEORY":"SGP4","MEAN_ANOMALY":"155.4437","TIME_SYSTEM":"UTC","FILE":"3556957","BSTAR":"0.00233980000000","REF_FRAME":"TEME","ECCENTRICITY":"0.00019200","GP_ID":"211672609","COUNTRY_CODE":"US","TLE_LINE2":"2 52111  53.2178  77.7070 0001920  63.9698 155.4437 15.08832357  1304"},{"NORAD_CAT_ID":"52112","EPHEMERIS_TYPE":"0","REV_AT_EPOCH":"130","ELEMENT_SET_NO":"999","INCLINATION":"53.2167","REF_FRAME":"TEME","BSTAR":"0.00211060000000","FILE":"3556957","TIME_SYSTEM":"UTC","MEAN_ANOMALY":"112.3522","MEAN_ELEMENT_THEORY":"SGP4","TLE_LINE2":"2 52112  53.2167  77.7033 0002185  66.9612 112.3522 15.08839786  1305","COUNTRY_CODE":"US","GP_ID":"211672852","ECCENTRICITY":"0.00021850","PERIOD":"95.438","PERIAPSIS":"538.234","RA_OF_ASC_NODE":"77.7033","CLASSIFICATION_TYPE":"U","APOAPSIS":"541.258","OBJECT_ID":"2022-029AA","OBJECT_NAME":"STARLINK-3734","MEAN_MOTION":"15.08839786","LAUNCH_DATE":"2022-03-19","SEMIMAJOR_AXIS":"6917.881","MEAN_MOTION_DOT":"0.00033462","ARG_OF_PERICENTER":"66.9612","CENTER_NAME":"EARTH","EPOCH":"2022-09-03T22:00:00.999936","MEAN_MOTION_DDOT":"0.0000000000000","OBJECT_TYPE":"PAYLOAD","SITE":"AFETR","DECAY_DATE":null,"RCS_SIZE":"LARGE","TLE_LINE1":"1 52112U 22029AA  22246.91667824  .00033462  00000-0  21106-2 0  9995"},{"RCS_SIZE":"LARGE","TLE_LINE1":"1 52113U 22029AB  22246.91667824  .00035520  00000-0  22397-2 0  9996","MEAN_MOTION_DDOT":"0.0000000000000","OBJECT_TYPE":"PAYLOAD","DECAY_DATE":null,"SITE":"AFETR","CENTER_NAME":"EARTH","EPOCH":"2022-09-03T22:00:00.999936","SEMIMAJOR_AXIS":"6917.935","MEAN_MOTION_DOT":"0.00035520","ARG_OF_PERICENTER":"66.5861","APOAPSIS":"541.118","CLASSIFICATION_TYPE":"U","OBJECT_NAME":"STARLINK-3736","OBJECT_ID":"2022-029AB","MEAN_MOTION":"15.08822208","LAUNCH_DATE":"2022-03-19","RA_OF_ASC_NODE":"77.6993","PERIAPSIS":"538.482","PERIOD":"95.439","ECCENTRICITY":"0.00019050","TLE_LINE2":"2 52113  53.2167  77.6993 0001905  66.5861 192.8206 15.08822208  1304","COUNTRY_CODE":"US","GP_ID":"211671608","FILE":"3556957","BSTAR":"0.00223970000000","TIME_SYSTEM":"UTC","MEAN_ANOMALY":"192.8206","MEAN_ELEMENT_THEORY":"SGP4","REF_FRAME":"TEME","INCLINATION":"53.2167","ELEMENT_SET_NO":"999","REV_AT_EPOCH":"130","EPHEMERIS_TYPE":"0","NORAD_CAT_ID":"52113"},{"ECCENTRICITY":"0.00021220","TLE_LINE2":"2 52114  53.2173  77.7049 0002122  62.4209 136.9843 15.08823831  1307","GP_ID":"211671858","COUNTRY_CODE":"US","FILE":"3556957","BSTAR":"0.00216800000000","MEAN_ELEMENT_THEORY":"SGP4","MEAN_ANOMALY":"136.9843","TIME_SYSTEM":"UTC","REF_FRAME":"TEME","ELEMENT_SET_NO":"999","INCLINATION":"53.2173","REV_AT_EPOCH":"130","EPHEMERIS_TYPE":"0","NORAD_CAT_ID":"52114","TLE_LINE1":"1 52114U 22029AC  22246.91667824  .00034370  00000-0  21680-2 0  9993","RCS_SIZE":"LARGE","MEAN_MOTION_DDOT":"0.0000000000000","SITE":"AFETR","DECAY_DATE":null,"OBJECT_TYPE":"PAYLOAD","CENTER_NAME":"EARTH","EPOCH":"2022-09-03T22:00:00.999936","MEAN_MOTION_DOT":"0.00034370","SEMIMAJOR_AXIS":"6917.930","ARG_OF_PERICENTER":"62.4209","OBJECT_NAME":"STARLINK-3737","OBJECT_ID":"2022-029AC","APOAPSIS":"541.263","CLASSIFICATION_TYPE":"U","LAUNCH_DATE":"2022-03-19","MEAN_MOTION":"15.08823831","PERIAPSIS":"538.327","RA_OF_ASC_NODE":"77.7049","PERIOD":"95.439"},{"CENTER_NAME":"EARTH","EPOCH":"2022-09-03T22:00:00.999936","SEMIMAJOR_AXIS":"6917.842","MEAN_MOTION_DOT":"-0.00010887","ARG_OF_PERICENTER":"64.0244","TLE_LINE1":"1 52115U 22029AD  22246.91667824 -.00010887  00000-0 -66675-3 0  9997","RCS_SIZE":"LARGE","MEAN_MOTION_DDOT":"0.0000000000000","OBJECT_TYPE":"PAYLOAD","DECAY_DATE":null,"SITE":"AFETR","PERIOD":"95.437","APOAPSIS":"540.923","CLASSIFICATION_TYPE":"U","OBJECT_NAME":"STARLINK-3685","OBJECT_ID":"2022-029AD","MEAN_MOTION":"15.08852539","LAUNCH_DATE":"2022-03-19","RA_OF_ASC_NODE":"77.7047","PERIAPSIS":"538.491","BSTAR":"-0.00066675000000","FILE":"3556957","TIME_SYSTEM":"UTC","MEAN_ANOMALY":"235.3795","MEAN_ELEMENT_THEORY":"SGP4","REF_FRAME":"TEME","ECCENTRICITY":"0.00017580","TLE_LINE2":"2 52115  53.2183  77.7047 0001758  64.0244 235.3795 15.08852539  1305","COUNTRY_CODE":"US","GP_ID":"211673110","EPHEMERIS_TYPE":"0","NORAD_CAT_ID":"52115","INCLINATION":"53.2183","ELEMENT_SET_NO":"999","REV_AT_EPOCH":"130"},{"BSTAR":"-0.00051072000000","FILE":"3556957","TIME_SYSTEM":"UTC","MEAN_ANOMALY":"170.5050","MEAN_ELEMENT_THEORY":"SGP4","REF_FRAME":"TEME","ECCENTRICITY":"0.00019890","TLE_LINE2":"2 52116  53.2178  77.7022 0001989  68.9323 170.5050 15.08845789  1303","COUNTRY_CODE":"US","GP_ID":"211673353","EPHEMERIS_TYPE":"0","NORAD_CAT_ID":"52116","ELEMENT_SET_NO":"999","INCLINATION":"53.2178","REV_AT_EPOCH":"130","CENTER_NAME":"EARTH","EPOCH":"2022-09-03T22:00:00.999936","SEMIMAJOR_AXIS":"6917.863","MEAN_MOTION_DOT":"-0.00008409","ARG_OF_PERICENTER":"68.9323","TLE_LINE1":"1 52116U 22029AE  22246.91667824 -.00008409  00000-0 -51072-3 0  9990","RCS_SIZE":"LARGE","MEAN_MOTION_DDOT":"0.0000000000000","OBJECT_TYPE":"PAYLOAD","DECAY_DATE":null,"SITE":"AFETR","PERIOD":"95.437","CLASSIFICATION_TYPE":"U","APOAPSIS":"541.104","OBJECT_NAME":"STARLINK-3735","OBJECT_ID":"2022-029AE","MEAN_MOTION":"15.08845789","LAUNCH_DATE":"2022-03-19","PERIAPSIS":"538.352","RA_OF_ASC_NODE":"77.7022"},{"DECAY_DATE":null,"SITE":"AFETR","OBJECT_TYPE":"PAYLOAD","MEAN_MOTION_DDOT":"0.0000000000000","TLE_LINE1":"1 52117U 22029AF  22246.91667824  .00020473  00000-0  13007-2 0  9999","RCS_SIZE":"LARGE","ARG_OF_PERICENTER":"61.9428","MEAN_MOTION_DOT":"0.00020473","SEMIMAJOR_AXIS":"6917.882","EPOCH":"2022-09-03T22:00:00.999936","CENTER_NAME":"EARTH","RA_OF_ASC_NODE":"77.7033","PERIAPSIS":"538.464","LAUNCH_DATE":"2022-03-19","MEAN_MOTION":"15.08839451","OBJECT_ID":"2022-029AF","OBJECT_NAME":"STARLINK-3738","APOAPSIS":"541.030","CLASSIFICATION_TYPE":"U","PERIOD":"95.438","GP_ID":"211672109","COUNTRY_CODE":"US","TLE_LINE2":"2 52117  53.2177  77.7033 0001855  61.9428 277.4821 15.08839451  1308","ECCENTRICITY":"0.00018550","REF_FRAME":"TEME","MEAN_ELEMENT_THEORY":"SGP4","MEAN_ANOMALY":"277.4821","TIME_SYSTEM":"UTC","BSTAR":"0.00130070000000","FILE":"3556957","REV_AT_EPOCH":"130","ELEMENT_SET_NO":"999","INCLINATION":"53.2177","NORAD_CAT_ID":"52117","EPHEMERIS_TYPE":"0"},{"TLE_LINE1":"1 52118U 22029AG  22246.91667824  .00034820  00000-0  21955-2 0  9992","RCS_SIZE":"LARGE","MEAN_MOTION_DDOT":"0.0000000000000","OBJECT_TYPE":"PAYLOAD","SITE":"AFETR","DECAY_DATE":null,"CENTER_NAME":"EARTH","EPOCH":"2022-09-03T22:00:00.999936","SEMIMAJOR_AXIS":"6917.901","MEAN_MOTION_DOT":"0.00034820","ARG_OF_PERICENTER":"63.7395","APOAPSIS":"541.098","CLASSIFICATION_TYPE":"U","OBJECT_NAME":"STARLINK-3743","OBJECT_ID":"2022-029AG","MEAN_MOTION":"15.08833103","LAUNCH_DATE":"2022-03-19","PERIAPSIS":"538.435","RA_OF_ASC_NODE":"77.6994","PERIOD":"95.438","ECCENTRICITY":"0.00019250","TLE_LINE2":"2 52118  53.2167  77.6994 0001925  63.7395 215.6071 15.08833103  1303","COUNTRY_CODE":"US","GP_ID":"211672359","BSTAR":"0.00219550000000","FILE":"3556957","TIME_SYSTEM":"UTC","MEAN_ELEMENT_THEORY":"SGP4","MEAN_ANOMALY":"215.6071","REF_FRAME":"TEME","INCLINATION":"53.2167","ELEMENT_SET_NO":"999","REV_AT_EPOCH":"130","EPHEMERIS_TYPE":"0","NORAD_CAT_ID":"52118"}];
